[{"name":"ONEWEB-0053","l1":"1 45157U 20008AC  26183.54781676 -.00000199  00000+0 -60631-3 0  9995","l2":"2 45157  87.8817  33.2232 0001772  70.2201 289.9117 13.10374400309920","cat":"starlink"},{"name":"ONEWEB-0054","l1":"1 45158U 20008AD  26183.12535786  .00000323  00000+0  88956-3 0  9996","l2":"2 45158  87.8825  33.2919 0001884  85.0029 275.1314 13.10371570309985","cat":"starlink"},{"name":"ONEWEB-0056","l1":"1 45159U 20008AE  26183.55447227  .00000087  00000+0  21296-3 0  9997","l2":"2 45159  87.8829  33.1997 0002073  86.2529 273.8835 13.10374396310191","cat":"starlink"},{"name":"ONEWEB-0057","l1":"1 45160U 20008AF  26183.57173382  .00000643  00000+0  18051-2 0  9991","l2":"2 45160  87.8822  33.2081 0001879  69.0802 291.0527 13.10371599310368","cat":"starlink"},{"name":"ONEWEB-0058","l1":"1 45161U 20008AG  26183.55853201  .00000280  00000+0  76467-3 0  9998","l2":"2 45161  87.8819  33.2158 0001700  91.9399 268.1923 13.10376317310434","cat":"starlink"},{"name":"ONEWEB-0059","l1":"1 45162U 20008AH  26183.55476424  .00000081  00000+0  19463-3 0  9999","l2":"2 45162  87.8819  33.2158 0001628  78.7104 281.4206 13.10372810310336","cat":"starlink"},{"name":"ONEWEB-0062","l1":"1 45163U 20008AJ  26183.57825659  .00000537  00000+0  15020-2 0  9990","l2":"2 45163  87.8825  33.1995 0001853  95.8880 264.2459 13.10372195310204","cat":"starlink"},{"name":"ONEWEB-0065","l1":"1 45164U 20008AK  26183.00131835 -.00000540  00000+0 -15826-2 0  9995","l2":"2 45164  87.8823  33.3227 0001987  77.6401 282.4948 13.10375821309828","cat":"starlink"},{"name":"ONEWEB-0066","l1":"1 45424U 20020A   26183.78752764 -.00000289  00000+0 -85225-3 0  9994","l2":"2 45424  87.8873  17.9646 0001656  88.6616 271.4702 13.11415050304728","cat":"starlink"},{"name":"ONEWEB-0067","l1":"1 45425U 20020B   26183.44384750  .00000412  00000+0  11268-2 0  9995","l2":"2 45425  87.8900  17.9578 0001835  82.3055 277.8281 13.11426125304739","cat":"starlink"},{"name":"ONEWEB-0080","l1":"1 45426U 20020C   26183.51979447  .00000330  00000+0  89604-3 0  9996","l2":"2 45426  87.8891  18.0159 0001864  97.8248 262.3092 13.11417192304714","cat":"starlink"},{"name":"ONEWEB-0090","l1":"1 45427U 20020D   26183.77750324  .00000070  00000+0  16209-3 0  9998","l2":"2 45427  87.8885  17.9689 0001873  90.9978 269.1364 13.11414550304710","cat":"starlink"},{"name":"ONEWEB-0061","l1":"1 45428U 20020E   26183.50424426 -.00000262  00000+0 -77600-3 0  9998","l2":"2 45428  87.8887  18.0079 0001811  89.1217 271.0118 13.11417477304637","cat":"starlink"},{"name":"ONEWEB-0081","l1":"1 45429U 20020F   26183.79091789 -.00000493  00000+0 -14279-2 0  9990","l2":"2 45429  87.8882  17.9603 0001675  84.4945 275.6374 13.11414743304781","cat":"starlink"},{"name":"ONEWEB-0069","l1":"1 45430U 20020G   26183.79276971 -.00000482  00000+0 -13971-2 0  9996","l2":"2 45430  87.8882  17.9632 0001642  86.3773 273.7542 13.11417546304712","cat":"starlink"},{"name":"ONEWEB-0031","l1":"1 45431U 20020H   26183.52304433  .00000427  00000+0  11683-2 0  9998","l2":"2 45431  87.8876  18.0209 0001876  94.0084 266.1258 13.11417092304668","cat":"starlink"},{"name":"ONEWEB-0027","l1":"1 45432U 20020J   26183.75212579  .00000044  00000+0  81152-4 0  9998","l2":"2 45432  87.9134   2.7686 0002308  98.8418 261.2975 13.17652779308407","cat":"starlink"},{"name":"ONEWEB-0064","l1":"1 45433U 20020K   26183.52134729  .00000392  00000+0  10698-2 0  9995","l2":"2 45433  87.8881  18.0136 0001941  92.1879 267.9471 13.11418334304698","cat":"starlink"},{"name":"ONEWEB-0018","l1":"1 45434U 20020L   26183.78229958 -.00000149  00000+0 -45704-3 0  9992","l2":"2 45434  87.8878  17.9611 0001461  94.0134 266.1161 13.11413980304670","cat":"starlink"},{"name":"ONEWEB-0083","l1":"1 45435U 20020M   26183.54352726  .00000239  00000+0  63726-3 0  9999","l2":"2 45435  87.8883  18.0031 0001837  91.3275 268.8064 13.11413897304687","cat":"starlink"},{"name":"ONEWEB-0095","l1":"1 45436U 20020N   26183.45875080  .00000488  00000+0  13407-2 0  9999","l2":"2 45436  87.8884  18.0286 0002528  84.0742 276.0674 13.11415196304678","cat":"starlink"},{"name":"ONEWEB-0092","l1":"1 45437U 20020P   26183.79432012 -.00000442  00000+0 -12836-2 0  9998","l2":"2 45437  87.8886  17.9529 0001984  81.6720 278.4633 13.11411769304834","cat":"starlink"},{"name":"ONEWEB-0085","l1":"1 45438U 20020Q   26183.77214258  .00000324  00000+0  87859-3 0  9992","l2":"2 45438  87.8878  17.9634 0001850  88.8459 271.2880 13.11414592304712","cat":"starlink"},{"name":"ONEWEB-0096","l1":"1 45439U 20020R   26183.77396727  .00000205  00000+0  54341-3 0  9993","l2":"2 45439  87.8883  17.9600 0001961  88.0126 272.1227 13.11413617304709","cat":"starlink"},{"name":"ONEWEB-0037","l1":"1 45440U 20020S   26183.80135220 -.00000420  00000+0 -12128-2 0  9995","l2":"2 45440  87.8896  17.9272 0001912  87.0220 273.1127 13.11914465304741","cat":"starlink"},{"name":"ONEWEB-0042","l1":"1 45441U 20020T   26183.45848250  .00000419  00000+0  11456-2 0  9990","l2":"2 45441  87.8885  18.0190 0001776  85.5072 274.6259 13.11415539304668","cat":"starlink"},{"name":"ONEWEB-0098","l1":"1 45442U 20020U   26183.45437072  .00000559  00000+0  15421-2 0  9998","l2":"2 45442  87.8882  18.0289 0001839  90.9972 269.1367 13.11417678304647","cat":"starlink"},{"name":"ONEWEB-0055","l1":"1 45443U 20020V   26183.50933980 -.00000104  00000+0 -33021-3 0  9999","l2":"2 45443  87.8887  18.0169 0001861  90.8335 269.3006 13.11418027304626","cat":"starlink"},{"name":"ONEWEB-0093","l1":"1 45444U 20020W   26183.79651771 -.00000573  00000+0 -16652-2 0  9996","l2":"2 45444  87.8884  17.9538 0001638  81.0762 279.0551 13.10891751304722","cat":"starlink"},{"name":"ONEWEB-0029","l1":"1 45445U 20020X   26183.51639778  .00000263  00000+0  70567-3 0  9990","l2":"2 45445  87.8878  18.0165 0001609  84.4644 275.6667 13.11417107304661","cat":"starlink"},{"name":"ONEWEB-0068","l1":"1 45446U 20020Y   26183.79417414 -.00000429  00000+0 -12477-2 0  9993","l2":"2 45446  87.8883  17.9571 0001681  86.2462 273.8858 13.11415866304645","cat":"starlink"}]